OBJECT_NAME,OBJECT_ID,EPOCH,MEAN_MOTION,ECCENTRICITY,INCLINATION,RA_OF_ASC_NODE,ARG_OF_PERICENTER,MEAN_ANOMALY,EPHEMERIS_TYPE,CLASSIFICATION_TYPE,NORAD_CAT_ID,ELEMENT_SET_NO,REV_AT_EPOCH,BSTAR,MEAN_MOTION_DOT,MEAN_MOTION_DDOT
STARLINK-33721,2025-070W,2026-06-10T12:08:28.737024,15.27574866,.0001889,42.9960,91.9519,269.6765,90.3870,0,U,63480,999,6721,.77554E-3,.21137E-3,0
STARLINK-33639,2025-070X,2026-06-09T13:03:52.805088,15.27594903,.00027573,43.0026,97.6320,267.5593,92.4943,0,U,63481,999,6706,.54250808E-3,.14704E-3,0
STARLINK-33688,2025-070Z,2026-06-09T13:14:19.279392,15.27580178,.00009534,43.0039,101.1568,287.4127,72.6620,0,U,63483,999,6702,.55081348E-3,.14926E-3,0
STARLINK-33700,2025-070AA,2026-06-10T02:53:56.974848,15.27596002,.00005354,43.0074,97.6892,237.9535,122.1265,0,U,63484,999,6711,.71477737E-3,.19468E-3,0
STARLINK-33687,2025-070AB,2026-06-10T12:02:13.429248,15.27604970,.000082,43.0018,95.3388,278.9662,81.1097,0,U,63485,999,6717,.49915E-3,.13509E-3,0
STARLINK-33716,2025-070AC,2026-06-10T12:09:37.429344,15.27592920,.000298,42.9894,95.4271,278.1204,81.9310,0,U,63486,999,6717,.67449E-3,.18353E-3,0
STARLINK-33754,2025-070AD,2026-06-10T03:14:18.157632,15.27609565,.0001032,43.0165,97.7946,67.2115,292.8846,0,U,63487,999,6711,.69554003E-3,.18943E-3,0
POSAT-2,2025-009DR,2026-06-10T12:13:18.251328,15.12783861,.0006936,97.4847,236.6848,160.2387,199.9114,0,U,63488,999,6563,.68964E-3,.12054E-3,0
HERMES-6,2025-052BK,2026-06-10T10:35:04.276608,15.23055765,.0006159,97.4019,54.0249,176.8636,183.2640,0,U,63489,999,6880,.27901E-3,.6505E-4,0
STARLINK-33828,2025-071A,2026-06-10T10:29:52.198080,15.35400421,.0001074,53.1581,67.4538,97.6120,262.5005,0,U,63493,999,6697,.62337E-3,.21426E-3,0
STARLINK-33819,2025-071B,2026-06-10T00:49:03.631584,15.42152542,.00010314,53.1577,69.1945,80.9733,279.1390,0,U,63494,999,6691,.11925871E-2,.51823E-3,0
STARLINK-33845,2025-071C,2026-06-10T10:43:25.329216,15.30228877,.0001993,53.1585,68.9185,79.7904,280.3322,0,U,63495,999,6695,.91416E-3,.26838E-3,0
STARLINK-33829,2025-071D,2026-06-10T11:06:05.069952,15.30455325,.0001118,53.1602,69.0187,183.8886,176.2106,0,U,63496,999,6691,.30322E-2,.91275E-3,0
STARLINK-33815,2025-071E,2026-06-10T01:35:54.893184,15.31716503,.0001093,53.1590,70.8147,92.3235,267.7892,0,U,63497,999,6691,.77851E-3,.23883E-3,0
STARLINK-33833,2025-071F,2026-06-10T12:00:02.000160,15.31692141,.0001073,53.1607,68.8941,94.7271,85.1357,0,U,63498,999,570,.10338E-2,.31844E-3,0
STARLINK-33534,2025-071G,2026-06-10T00:48:51.532992,15.31726344,.00010947,53.1583,70.6116,81.4907,278.6218,0,U,63499,999,6689,.66710166E-3,.20409E-3,0
STARLINK-33838,2025-071H,2026-06-10T06:07:20.163936,15.30220256,.0001252,53.1584,69.8552,99.7695,260.3447,0,U,63500,999,6673,.69876E-3,.20406E-3,0
STARLINK-33837,2025-071J,2026-06-10T11:19:50.067264,15.31711343,.0000698,53.1608,69.0784,83.8607,276.2474,0,U,63501,999,6691,.48318E-3,.14663E-3,0
STARLINK-33818,2025-071K,2026-06-10T10:44:57.796224,15.30217988,.0001437,53.1588,68.9205,63.4156,296.6992,0,U,63502,999,6697,.10361E-2,.3047E-3,0
STARLINK-33583,2025-071L,2026-06-10T10:27:26.646048,15.49337390,.000316,53.1603,67.4195,86.1473,273.9897,0,U,63503,999,6700,.49719E-3,.2733E-3,0
STARLINK-33811,2025-071M,2026-06-10T00:50:22.734240,15.30183393,.00012597,53.1582,71.3218,80.4995,279.6148,0,U,63504,999,6684,.57827564E-3,.16798E-3,0
STARLINK-33825,2025-071N,2026-06-10T10:31:16.017312,15.30198835,.0000888,53.1582,68.8632,111.4250,248.6845,0,U,63505,999,6697,.42119E-3,.12135E-3,0
STARLINK-33792,2025-071P,2026-06-10T10:37:20.257248,15.30211715,.0001191,53.1581,68.8918,99.8729,260.2406,0,U,63506,999,6692,.61944E-3,.18038E-3,0
STARLINK-33843,2025-071Q,2026-06-10T01:40:21.701568,15.30210026,.0001419,53.1607,70.7940,90.0655,270.0508,0,U,63507,999,6689,.35989E-3,.10318E-3,0
STARLINK-33809,2025-071R,2026-06-10T10:47:58.187328,15.30214042,.0001545,53.1591,68.9013,74.4482,285.6690,0,U,63508,999,6691,.10239E-2,.30101E-3,0
STARLINK-33678,2025-071S,2026-06-10T00:42:07.822080,15.31722752,.00011353,53.1583,70.5450,77.9125,282.2004,0,U,63509,999,6664,.67904427E-3,.2078E-3,0
STARLINK-33764,2025-071T,2026-06-10T00:54:56.227392,15.30214491,.00010799,53.1580,71.3051,89.0087,271.1038,0,U,63510,999,6688,.4947063E-3,.14327E-3,0
STARLINK-33804,2025-071U,2026-06-10T01:29:11.073408,15.31720325,.00010329,53.1600,70.7485,87.8369,272.2750,0,U,63511,999,6654,.95219837E-3,.29318E-3,0
STARLINK-33751,2025-071V,2026-06-10T10:39:30.134592,15.31711571,.0001432,53.1588,68.8683,97.3665,262.7499,0,U,63512,999,6695,.81799E-3,.25113E-3,0
STARLINK-33750,2025-071W,2026-06-10T10:26:03.314976,15.31715721,.0001406,53.1592,68.8108,102.3829,257.7330,0,U,63513,999,6695,.69431E-3,.21252E-3,0
