STARLINK-33721          
1 63480U 25070W   26161.50588816  .00021137  00000+0  77554-3 0  9996
2 63480  42.9960  91.9519 0001889 269.6765  90.3870 15.27574866 67218
STARLINK-33639          
1 63481U 25070X   26160.54436117  .00014704  00000+0  54251-3 0  9997
2 63481  43.0026  97.6320 0002757 267.5593  92.4943 15.27594903 67069
STARLINK-33688          
1 63483U 25070Z   26160.55161203  .00014926  00000+0  55081-3 0  9999
2 63483  43.0039 101.1568 0000953 287.4127  72.6620 15.27580178 67027
STARLINK-33700          
1 63484U 25070AA  26161.12079832  .00019468  00000+0  71478-3 0  9994
2 63484  43.0074  97.6892 0000535 237.9535 122.1265 15.27596002 67114
STARLINK-33687          
1 63485U 25070AB  26161.50154432  .00013509  00000+0  49915-3 0  9998
2 63485  43.0018  95.3388 0000820 278.9662  81.1097 15.27604970 67178
STARLINK-33716          
1 63486U 25070AC  26161.50668321  .00018353  00000+0  67449-3 0  9990
2 63486  42.9894  95.4271 0002980 278.1204  81.9310 15.27592920 67171
STARLINK-33754          
1 63487U 25070AD  26161.13493238  .00018943  00000+0  69554-3 0  9997
2 63487  43.0165  97.7946 0001032  67.2115 292.8846 15.27609565 67119
POSAT-2                 
1 63488U 25009DR  26161.50923902  .00012054  00000+0  68964-3 0  9998
2 63488  97.4847 236.6848 0006936 160.2387 199.9114 15.12783861 65634
HERMES-6                
1 63489U 25052BK  26161.44102172  .00006505  00000+0  27901-3 0  9998
2 63489  97.4019  54.0249 0006159 176.8636 183.2640 15.23055765 68809
STARLINK-33828          
1 63493U 25071A   26161.43740970  .00021426  00000+0  62337-3 0  9998
2 63493  53.1581  67.4538 0001074  97.6120 262.5005 15.35400421 66973
STARLINK-33819          
1 63494U 25071B   26161.03406981  .00051823  00000+0  11926-2 0  9997
2 63494  53.1577  69.1945 0001031  80.9733 279.1390 15.42152542 66919
STARLINK-33845          
1 63495U 25071C   26161.44682094  .00026838  00000+0  91416-3 0  9995
2 63495  53.1585  68.9185 0001993  79.7904 280.3322 15.30228877 66950
STARLINK-33829          
1 63496U 25071D   26161.46255868  .00091275  00000+0  30322-2 0  9998
2 63496  53.1602  69.0187 0001118 183.8886 176.2106 15.30455325 66919
STARLINK-33815          
1 63497U 25071E   26161.06660756  .00023883  00000+0  77851-3 0  9990
2 63497  53.1590  70.8147 0001093  92.3235 267.7892 15.31716503 66913
STARLINK-33833          
1 63498U 25071F   26161.50002315  .00031844  00000+0  10338-2 0  9993
2 63498  53.1607  68.8941 0001073  94.7271  85.1357 15.31692141  5705
STARLINK-33534          
1 63499U 25071G   26161.03392978  .00020409  00000+0  66710-3 0  9990
2 63499  53.1583  70.6116 0001094  81.4907 278.6218 15.31726344 66891
STARLINK-33838          
1 63500U 25071H   26161.25509449  .00020406  00000+0  69876-3 0  9993
2 63500  53.1584  69.8552 0001252  99.7695 260.3447 15.30220256 66736
STARLINK-33837          
1 63501U 25071J   26161.47210726  .00014663  00000+0  48318-3 0  9991
2 63501  53.1608  69.0784 0000698  83.8607 276.2474 15.31711343 66912
STARLINK-33818          
1 63502U 25071K   26161.44789116  .00030470  00000+0  10361-2 0  9993
2 63502  53.1588  68.9205 0001437  63.4156 296.6992 15.30217988 66973
STARLINK-33583          
1 63503U 25071L   26161.43572507  .00027330  00000+0  49719-3 0  9998
2 63503  53.1603  67.4195 0003160  86.1473 273.9897 15.49337390 67000
STARLINK-33811          
1 63504U 25071M   26161.03498535  .00016798  00000+0  57828-3 0  9999
2 63504  53.1582  71.3218 0001259  80.4995 279.6148 15.30183393 66845
STARLINK-33825          
1 63505U 25071N   26161.43837983  .00012135  00000+0  42119-3 0  9996
2 63505  53.1582  68.8632 0000888 111.4250 248.6845 15.30198835 66974
STARLINK-33792          
1 63506U 25071P   26161.44259557  .00018038  00000+0  61944-3 0  9998
2 63506  53.1581  68.8918 0001191  99.8729 260.2406 15.30211715 66920
STARLINK-33843          
1 63507U 25071Q   26161.06969562  .00010318  00000+0  35989-3 0  9994
2 63507  53.1607  70.7940 0001419  90.0655 270.0508 15.30210026 66893
STARLINK-33809          
1 63508U 25071R   26161.44997902  .00030101  00000+0  10239-2 0  9998
2 63508  53.1591  68.9013 0001545  74.4482 285.6690 15.30214042 66919
STARLINK-33678          
1 63509U 25071S   26161.02925720  .00020780  00000+0  67904-3 0  9996
2 63509  53.1583  70.5450 0001135  77.9125 282.2004 15.31722752 66647
STARLINK-33764          
1 63510U 25071T   26161.03815078  .00014327  00000+0  49471-3 0  9992
2 63510  53.1580  71.3051 0001079  89.0087 271.1038 15.30214491 66885
STARLINK-33804          
1 63511U 25071U   26161.06193372  .00029318  00000+0  95220-3 0  9991
2 63511  53.1600  70.7485 0001032  87.8369 272.2750 15.31720325 66546
STARLINK-33751          
1 63512U 25071V   26161.44409878  .00025113  00000+0  81799-3 0  9990
2 63512  53.1588  68.8683 0001432  97.3665 262.7499 15.31711571 66951
STARLINK-33750          
1 63513U 25071W   26161.43476059  .00021252  00000+0  69431-3 0  9994
2 63513  53.1592  68.8108 0001406 102.3829 257.7330 15.31715721 66958
